DMSP 5D-3 F16 (USA 172) 
1 28054U 03048A   26159.47214536  .00000022  00000+0  35042-4 0  9990
2 28054  98.9892 183.2426 0007326 163.0817 299.4504 14.14482446168259
METEOSAT-9 (MSG-2)      
1 28912U 05049B   26158.97455412  .00000137  00000+0  00000+0 0  9998
2 28912   9.3397  54.2567 0001748 351.8629 246.7838  1.00268603  6907
DMSP 5D-3 F17 (USA 191) 
1 29522U 06050A   26159.47220093  .00000068  00000+0  57271-4 0  9990
2 29522  98.7377 166.2206 0011321  81.7832 278.4625 14.14991997 11193
FENGYUN 3A              
1 32958U 08026A   26159.44832742  .00000081  00000+0  59028-4 0  9996
2 32958  98.6881 100.4451 0009224 146.7269 213.4489 14.19569375934160
GOES 14                 
1 35491U 09033A   26159.49697284 -.00000240  00000+0  00000+0 0  9994
2 35491   1.6666  83.1493 0001948   4.3702 135.0857  1.00114015  6508
DMSP 5D-3 F18 (USA 210) 
1 35951U 09057A   26159.44299618  .00000248  00000+0  15178-3 0  9998
2 35951  98.9034 140.2313 0009875 277.4610  82.5440 14.14891886858350
EWS-G2 (GOES 15)        
1 36411U 10008A   26159.49893808  .00000035  00000+0  00000+0 0  9992
2 36411   1.2528  83.0061 0005476  38.2868  18.8165  1.00275841 59551
COMS 1                  
1 36744U 10032A   26154.99142485 -.00000334  00000+0  00000+0 0  9999
2 36744   4.7750  75.5286 0001016   4.5847 297.3769  1.00270643 50953
FENGYUN 3B              
1 37214U 10059A   26159.54351436  .00000179  00000+0  11583-3 0  9993
2 37214  98.9622 205.5213 0021441 209.0130 257.1919 14.14840667806201
SUOMI NPP               
1 37849U 11061A   26159.52978044  .00000079  00000+0  58452-4 0  9995
2 37849  98.7952 100.4651 0002007  25.8525 334.2751 14.19515650757210
METEOSAT-10 (MSG-3)     
1 38552U 12035B   26159.34375715  .00000010  00000+0  00000+0 0  9991
2 38552   4.6498  61.0570 0001616 335.3251 344.3203  1.00275798 50767
METOP-B                 
1 38771U 12049A   26159.46109421  .00000097  00000+0  64224-4 0  9999
2 38771  98.6507 211.1341 0002740  39.9673 320.1706 14.21430369712020
INSAT-3D                
1 39216U 13038B   26159.51194677 -.00000323  00000+0  00000+0 0  9996
2 39216   1.9027  82.6546 0000798 318.1394 169.9166  1.00273900 46994
FENGYUN 3C              
1 39260U 13052A   26159.49231541  .00000081  00000+0  62229-4 0  9996
2 39260  98.4975 133.7666 0015637  51.3587 308.8985 14.15753083657339
METEOR-M 2              
1 40069U 14037A   26159.48762190  .00000410  00000+0  20677-3 0  9993
2 40069  98.5114 135.5345 0007005  65.3481 294.8426 14.21459781618084
HIMAWARI-8              
1 40267U 14060A   26159.49697284 -.00000260  00000+0  00000+0 0  9999
2 40267   0.0250  61.4776 0000814  40.9950 113.9950  1.00270572 42670
FENGYUN 2G              
1 40367U 14090A   26158.79303955 -.00000288  00000+0  00000+0 0  9994
2 40367   5.6148  72.9276 0003376 153.3297  55.0224  1.00277410 41902
METEOSAT-11 (MSG-4)     
1 40732U 15034A   26159.27432663  .00000079  00000+0  00000+0 0  9999
2 40732   3.1800  71.1599 0001694   5.8925 287.8003  1.00277544  7129
ELEKTRO-L 2             
1 41105U 15074A   26159.05543303 -.00000103  00000+0  00000+0 0  9997
2 41105   6.6705  70.6343 0001134 284.8984 266.3917  1.00272046 38414
SENTINEL-3A             
1 41335U 16011A   26159.45033155  .00000104  00000+0  60985-4 0  9990
2 41335  98.6250 226.9591 0001351 104.4317 255.7013 14.26737622536818
INSAT-3DR               
1 41752U 16054A   26159.50093144 -.00000061  00000+0  00000+0 0  9990
2 41752   0.0828  87.5869 0010414 186.7847 236.8453  1.00270606 35734
HIMAWARI-9              
1 41836U 16064A   26159.49697284 -.00000258  00000+0  00000+0 0  9995
2 41836   0.0269 161.0754 0000848 317.3775  98.1186  1.00272684 35122
GOES 16                 
1 41866U 16071A   26159.46554259 -.00000075  00000+0  00000+0 0  9994
2 41866   0.3173  85.6157 0000446 315.9570 278.2106  1.00270684 35010
FENGYUN 4A              
1 41882U 16077A   26159.51082012 -.00000341  00000+0  00000+0 0  9993
2 41882   2.2999  80.3768 0008275 151.4985 332.6937  1.00274010 34840
CYGFM05                 
1 41884U 16078A   26159.13588581  .00021149  00000+0  29099-3 0  9997
2 41884  34.9577 320.5088 0006939  57.2733 302.8659 15.56264978527349
CYGFM04                 
1 41885U 16078B   26159.07040568  .00030386  00000+0  34874-3 0  9999
2 41885  34.9327 289.0859 0005960 104.2372 255.9016 15.61001382527577
CYGFM02                 
1 41886U 16078C   26158.76915223  .00034711  00000+0  35547-3 0  9998
2 41886  34.9410 285.9023 0006939 102.1457 258.0047 15.63886780527693
CYGFM01                 
1 41887U 16078D   26158.87202991  .00025246  00000+0  33868-3 0  9999
2 41887  34.9407 323.3879 0006911  47.7074 312.4235 15.56917446527257
CYGFM08                 
1 41888U 16078E   26158.71929494  .00029673  00000+0  36036-3 0  9995
2 41888  34.9437 304.2251 0007838  81.2519 278.9093 15.59518568527498
CYGFM07                 
1 41890U 16078G   26158.67904068  .00029729  00000+0  35980-3 0  9992
2 41890  34.9451 292.8440 0006345  98.7772 261.3672 15.59620790527518
CYGFM03                 
1 41891U 16078H   26158.77801366  .00027308  00000+0  33072-3 0  9992
2 41891  34.9404 294.1248 0005907  86.1053 274.0347 15.59618754527500
