OBJECT_NAME,OBJECT_ID,EPOCH,MEAN_MOTION,ECCENTRICITY,INCLINATION,RA_OF_ASC_NODE,ARG_OF_PERICENTER,MEAN_ANOMALY,EPHEMERIS_TYPE,CLASSIFICATION_TYPE,NORAD_CAT_ID,ELEMENT_SET_NO,REV_AT_EPOCH,BSTAR,MEAN_MOTION_DOT,MEAN_MOTION_DDOT
DMSP 5D-3 F16 (USA 172),2003-048A,2026-06-08T11:19:53.359104,14.14482446,.0007326,98.9892,183.2426,163.0817,299.4504,0,U,28054,999,16825,.35042E-4,.22E-6,0
METEOSAT-9 (MSG-2),2005-049B,2026-06-07T23:23:21.475968,1.00268603,.00017488,9.3397,54.2567,351.8629,246.7838,0,U,28912,999,690,0,.137E-5,0
DMSP 5D-3 F17 (USA 191),2006-050A,2026-06-08T11:19:58.160352,14.14991997,.0011321,98.7377,166.2206,81.7832,278.4625,0,U,29522,999,1119,.57271E-4,.68E-6,0
FENGYUN 3A,2008-026A,2026-06-08T10:45:35.489088,14.19569375,.0009224,98.6881,100.4451,146.7269,213.4489,0,U,32958,999,93416,.59028E-4,.81E-6,0
GOES 14,2009-033A,2026-06-08T11:55:38.453376,1.00114015,.0001948,1.6666,83.1493,4.3702,135.0857,0,U,35491,999,650,0,-.24E-5,0
DMSP 5D-3 F18 (USA 210),2009-057A,2026-06-08T10:37:54.869952,14.14891886,.0009875,98.9034,140.2313,277.4610,82.5440,0,U,35951,999,85835,.15178E-3,.248E-5,0
EWS-G2 (GOES 15),2010-008A,2026-06-08T11:58:28.250112,1.00275841,.0005476,1.2528,83.0061,38.2868,18.8165,0,U,36411,999,5955,0,.35E-6,0
COMS 1,2010-032A,2026-06-03T23:47:39.107040,1.00270643,.0001016,4.7750,75.5286,4.5847,297.3769,0,U,36744,999,5095,0,-.334E-5,0
FENGYUN 3B,2010-059A,2026-06-08T13:02:39.640704,14.14840667,.0021441,98.9622,205.5213,209.0130,257.1919,0,U,37214,999,80620,.11583E-3,.179E-5,0
SUOMI NPP,2011-061A,2026-06-08T12:42:53.030016,14.19515650,.0002007,98.7952,100.4651,25.8525,334.2751,0,U,37849,999,75721,.58452E-4,.79E-6,0
METEOSAT-10 (MSG-3),2012-035B,2026-06-08T08:15:00.617760,1.00275798,.0001616,4.6498,61.0570,335.3251,344.3203,0,U,38552,999,5076,0,.1E-6,0
METOP-B,2012-049A,2026-06-08T11:03:58.539744,14.21430369,.000274,98.6507,211.1341,39.9673,320.1706,0,U,38771,999,71202,.64224E-4,.97E-6,0
INSAT-3D,2013-038B,2026-06-08T12:17:12.200928,1.00273900,.0000798,1.9027,82.6546,318.1394,169.9166,0,U,39216,999,4699,0,-.323E-5,0
FENGYUN 3C,2013-052A,2026-06-08T11:48:56.051424,14.15753083,.0015637,98.4975,133.7666,51.3587,308.8985,0,U,39260,999,65733,.62229E-4,.81E-6,0
METEOR-M 2,2014-037A,2026-06-08T11:42:10.532160,14.21459781,.0007005,98.5114,135.5345,65.3481,294.8426,0,U,40069,999,61808,.20677E-3,.41E-5,0
HIMAWARI-8,2014-060A,2026-06-08T11:55:38.453376,1.00270572,.0000814,0.0250,61.4776,40.9950,113.9950,0,U,40267,999,4267,0,-.26E-5,0
FENGYUN 2G,2014-090A,2026-06-07T19:01:58.617120,1.00277410,.00033766,5.6148,72.9276,153.3297,55.0224,0,U,40367,999,4190,0,-.288E-5,0
METEOSAT-11 (MSG-4),2015-034A,2026-06-08T06:35:01.820832,1.00277544,.0001694,3.1800,71.1599,5.8925,287.8003,0,U,40732,999,712,0,.79E-6,0
ELEKTRO-L 2,2015-074A,2026-06-08T01:19:49.413792,1.00272046,.00011341,6.6705,70.6343,284.8984,266.3917,0,U,41105,999,3841,0,-.103E-5,0
SENTINEL-3A,2016-011A,2026-06-08T10:48:28.645920,14.26737622,.0001351,98.6250,226.9591,104.4317,255.7013,0,U,41335,999,53681,.60985E-4,.104E-5,0
INSAT-3DR,2016-054A,2026-06-08T12:01:20.476416,1.00270606,.0010414,0.0828,87.5869,186.7847,236.8453,0,U,41752,999,3573,0,-.61E-6,0
HIMAWARI-9,2016-064A,2026-06-08T11:55:38.453376,1.00272684,.0000848,0.0269,161.0754,317.3775,98.1186,0,U,41836,999,3512,0,-.258E-5,0
GOES 16,2016-071A,2026-06-08T11:10:22.879776,1.00270684,.0000446,0.3173,85.6157,315.9570,278.2106,0,U,41866,999,3501,0,-.75E-6,0
FENGYUN 4A,2016-077A,2026-06-08T12:15:34.858368,1.00274010,.0008275,2.2999,80.3768,151.4985,332.6937,0,U,41882,999,3484,0,-.341E-5,0
CYGFM05,2016-078A,2026-06-08T03:15:40.533984,15.56264978,.0006939,34.9577,320.5088,57.2733,302.8659,0,U,41884,999,52734,.29098935E-3,.21149E-3,0
CYGFM04,2016-078B,2026-06-08T01:41:23.050752,15.61001382,.00059603,34.9327,289.0859,104.2372,255.9016,0,U,41885,999,52757,.34873829E-3,.30386E-3,0
CYGFM02,2016-078C,2026-06-07T18:27:34.752672,15.63886780,.0006939,34.9410,285.9023,102.1457,258.0047,0,U,41886,999,52769,.35546881E-3,.34711E-3,0
CYGFM01,2016-078D,2026-06-07T20:55:43.384224,15.56917446,.00069115,34.9407,323.3879,47.7074,312.4235,0,U,41887,999,52725,.33867867E-3,.25246E-3,0
CYGFM08,2016-078E,2026-06-07T17:15:47.082816,15.59518568,.00078388,34.9437,304.2251,81.2519,278.9093,0,U,41888,999,52749,.36035801E-3,.29673E-3,0
CYGFM07,2016-078G,2026-06-07T16:17:49.114752,15.59620790,.00063457,34.9451,292.8440,98.7772,261.3672,0,U,41890,999,52751,.35980263E-3,.29729E-3,0
CYGFM03,2016-078H,2026-06-07T18:40:20.380224,15.59618754,.00059075,34.9404,294.1248,86.1053,274.0347,0,U,41891,999,52750,.3307232E-3,.27308E-3,0
